CCSDS_OMM_VERS = 2.0
CREATION_DATE  = 
ORIGINATOR     = 

OBJECT_NAME    = COSMOS 1892
OBJECT_ID      = 1987-088A
CENTER_NAME    = EARTH
REF_FRAME      = TEME
TIME_SYSTEM    = UTC
MEAN_ELEMENT_THEORY = SGP/SGP4

EPOCH          = 2025-10-31T11:15:12.496032
MEAN_MOTION    = 15.91513599
ECCENTRICITY   = .0005094
INCLINATION    = 82.4689
RA_OF_ASC_NODE = 91.2919
ARG_OF_PERICENTER = 317.1776
MEAN_ANOMALY   = 42.9100

EPHEMERIS_TYPE = 0
CLASSIFICATION_TYPE = U
NORAD_CAT_ID   = 18421
ELEMENT_SET_NO = 999
REV_AT_EPOCH   = 8455
BSTAR          = .76032E-3
MEAN_MOTION_DOT = .24457E-2
MEAN_MOTION_DDOT = .20702E-4

CCSDS_OMM_VERS = 2.0
CREATION_DATE  = 
ORIGINATOR     = 

OBJECT_NAME    = SL-14 R/B
OBJECT_ID      = 1988-001B
CENTER_NAME    = EARTH
REF_FRAME      = TEME
TIME_SYSTEM    = UTC
MEAN_ELEMENT_THEORY = SGP/SGP4

EPOCH          = 2025-10-31T12:59:30.522336
MEAN_MOTION    = 14.85355431
ECCENTRICITY   = .0016808
INCLINATION    = 82.5112
RA_OF_ASC_NODE = 316.8471
ARG_OF_PERICENTER = 308.7671
MEAN_ANOMALY   = 51.2042

EPHEMERIS_TYPE = 0
CLASSIFICATION_TYPE = U
NORAD_CAT_ID   = 18749
ELEMENT_SET_NO = 999
REV_AT_EPOCH   = 2285
BSTAR          = .7736E-4
MEAN_MOTION_DOT = .69E-5
MEAN_MOTION_DDOT = 0

CCSDS_OMM_VERS = 2.0
CREATION_DATE  = 
ORIGINATOR     = 

OBJECT_NAME    = COSMOS 1933
OBJECT_ID      = 1988-020A
CENTER_NAME    = EARTH
REF_FRAME      = TEME
TIME_SYSTEM    = UTC
MEAN_ELEMENT_THEORY = SGP/SGP4

EPOCH          = 2025-10-31T14:23:34.353024
MEAN_MOTION    = 15.16619505
ECCENTRICITY   = .0003082
INCLINATION    = 82.5171
RA_OF_ASC_NODE = 18.4953
ARG_OF_PERICENTER = 292.9313
MEAN_ANOMALY   = 67.1594

EPHEMERIS_TYPE = 0
CLASSIFICATION_TYPE = U
NORAD_CAT_ID   = 18958
ELEMENT_SET_NO = 999
REV_AT_EPOCH   = 3065
BSTAR          = .2946E-3
MEAN_MOTION_DOT = .5786E-4
MEAN_MOTION_DDOT = 0

CCSDS_OMM_VERS = 2.0
CREATION_DATE  = 
ORIGINATOR     = 

OBJECT_NAME    = SL-3 R/B
OBJECT_ID      = 1988-032B
CENTER_NAME    = EARTH
REF_FRAME      = TEME
TIME_SYSTEM    = UTC
MEAN_ELEMENT_THEORY = SGP/SGP4

EPOCH          = 2025-10-31T14:52:27.700320
MEAN_MOTION    = 15.18085199
ECCENTRICITY   = .0025938
INCLINATION    = 97.5041
RA_OF_ASC_NODE = 283.6612
ARG_OF_PERICENTER = 327.6060
MEAN_ANOMALY   = 32.3580

EPHEMERIS_TYPE = 0
CLASSIFICATION_TYPE = U
NORAD_CAT_ID   = 19046
ELEMENT_SET_NO = 999
REV_AT_EPOCH   = 3251
BSTAR          = .40799E-3
MEAN_MOTION_DOT = .8321E-4
MEAN_MOTION_DDOT = 0

CCSDS_OMM_VERS = 2.0
CREATION_DATE  = 
ORIGINATOR     = 

OBJECT_NAME    = SL-16 R/B
OBJECT_ID      = 1988-039B
CENTER_NAME    = EARTH
REF_FRAME      = TEME
TIME_SYSTEM    = UTC
MEAN_ELEMENT_THEORY = SGP/SGP4

EPOCH          = 2025-10-31T12:56:12.260256
MEAN_MOTION    = 14.19586116
ECCENTRICITY   = .0021901
INCLINATION    = 71.0156
RA_OF_ASC_NODE = 341.6311
ARG_OF_PERICENTER = 184.4273
MEAN_ANOMALY   = 175.6662

EPHEMERIS_TYPE = 0
CLASSIFICATION_TYPE = U
NORAD_CAT_ID   = 19120
ELEMENT_SET_NO = 999
REV_AT_EPOCH   = 94005
BSTAR          = -.12846E-4
MEAN_MOTION_DOT = -.75E-6
MEAN_MOTION_DDOT = 0

CCSDS_OMM_VERS = 2.0
CREATION_DATE  = 
ORIGINATOR     = 

OBJECT_NAME    = COSMOS 1953
OBJECT_ID      = 1988-050A
CENTER_NAME    = EARTH
REF_FRAME      = TEME
TIME_SYSTEM    = UTC
MEAN_ELEMENT_THEORY = SGP/SGP4

EPOCH          = 2025-10-31T16:31:11.767296
MEAN_MOTION    = 15.26261699
ECCENTRICITY   = .0010803
INCLINATION    = 82.5062
RA_OF_ASC_NODE = 287.7603
ARG_OF_PERICENTER = 208.8484
MEAN_ANOMALY   = 151.2158

EPHEMERIS_TYPE = 0
CLASSIFICATION_TYPE = U
NORAD_CAT_ID   = 19210
ELEMENT_SET_NO = 999
REV_AT_EPOCH   = 1809
BSTAR          = .29321E-3
MEAN_MOTION_DOT = .7641E-4
MEAN_MOTION_DDOT = 0

CCSDS_OMM_VERS = 2.0
CREATION_DATE  = 
ORIGINATOR     = 

OBJECT_NAME    = SL-8 R/B
OBJECT_ID      = 1988-053B
CENTER_NAME    = EARTH
REF_FRAME      = TEME
TIME_SYSTEM    = UTC
MEAN_ELEMENT_THEORY = SGP/SGP4

EPOCH          = 2025-10-31T15:00:04.084128
MEAN_MOTION    = 14.38820927
ECCENTRICITY   = .002057
INCLINATION    = 74.0487
RA_OF_ASC_NODE = 350.3412
ARG_OF_PERICENTER = 206.4518
MEAN_ANOMALY   = 269.1310

EPHEMERIS_TYPE = 0
CLASSIFICATION_TYPE = U
NORAD_CAT_ID   = 19257
ELEMENT_SET_NO = 999
REV_AT_EPOCH   = 95803
BSTAR          = .12661E-3
MEAN_MOTION_DOT = .364E-5
MEAN_MOTION_DDOT = 0

CCSDS_OMM_VERS = 2.0
CREATION_DATE  = 
ORIGINATOR     = 

OBJECT_NAME    = COSMOS 1975
OBJECT_ID      = 1988-093A
CENTER_NAME    = EARTH
REF_FRAME      = TEME
TIME_SYSTEM    = UTC
MEAN_ELEMENT_THEORY = SGP/SGP4

EPOCH          = 2025-10-31T13:14:27.172032
MEAN_MOTION    = 15.25461312
ECCENTRICITY   = .0009291
INCLINATION    = 82.5199
RA_OF_ASC_NODE = 247.0270
ARG_OF_PERICENTER = 267.3772
MEAN_ANOMALY   = 92.6403

EPHEMERIS_TYPE = 0
CLASSIFICATION_TYPE = U
NORAD_CAT_ID   = 19573
ELEMENT_SET_NO = 999
REV_AT_EPOCH   = 99969
BSTAR          = .5253E-3
MEAN_MOTION_DOT = .13341E-3
MEAN_MOTION_DDOT = 0

CCSDS_OMM_VERS = 2.0
CREATION_DATE  = 
ORIGINATOR     = 

OBJECT_NAME    = SL-14 R/B
OBJECT_ID      = 1988-093B
CENTER_NAME    = EARTH
REF_FRAME      = TEME
TIME_SYSTEM    = UTC
MEAN_ELEMENT_THEORY = SGP/SGP4

EPOCH          = 2025-10-31T16:13:28.001856
MEAN_MOTION    = 14.85485886
ECCENTRICITY   = .0022267
INCLINATION    = 82.5314
RA_OF_ASC_NODE = 163.1402
ARG_OF_PERICENTER = 103.8588
MEAN_ANOMALY   = 316.4462

EPHEMERIS_TYPE = 0
CLASSIFICATION_TYPE = U
NORAD_CAT_ID   = 19574
ELEMENT_SET_NO = 999
REV_AT_EPOCH   = 98188
BSTAR          = .65199E-4
MEAN_MOTION_DOT = .59E-5
MEAN_MOTION_DDOT = 0

CCSDS_OMM_VERS = 2.0
CREATION_DATE  = 
ORIGINATOR     = 

OBJECT_NAME    = SL-16 R/B
OBJECT_ID      = 1988-102B
CENTER_NAME    = EARTH
REF_FRAME      = TEME
TIME_SYSTEM    = UTC
MEAN_ELEMENT_THEORY = SGP/SGP4

EPOCH          = 2025-10-31T15:24:25.215264
MEAN_MOTION    = 14.16130167
ECCENTRICITY   = .0015408
INCLINATION    = 71.0003
RA_OF_ASC_NODE = 63.0171
ARG_OF_PERICENTER = 215.1281
MEAN_ANOMALY   = 144.8827

EPHEMERIS_TYPE = 0
CLASSIFICATION_TYPE = U
NORAD_CAT_ID   = 19650
ELEMENT_SET_NO = 999
REV_AT_EPOCH   = 90862
BSTAR          = .10833E-3
MEAN_MOTION_DOT = .167E-5
MEAN_MOTION_DDOT = 0

CCSDS_OMM_VERS = 2.0
CREATION_DATE  = 
ORIGINATOR     = 

OBJECT_NAME    = INTERCOSMOS 24
OBJECT_ID      = 1989-080A
CENTER_NAME    = EARTH
REF_FRAME      = TEME
TIME_SYSTEM    = UTC
MEAN_ELEMENT_THEORY = SGP/SGP4

EPOCH          = 2025-10-31T15:13:04.185408
MEAN_MOTION    = 12.59348674
ECCENTRICITY   = .118763
INCLINATION    = 82.6095
RA_OF_ASC_NODE = 188.3312
ARG_OF_PERICENTER = 232.2199
MEAN_ANOMALY   = 116.5465

EPHEMERIS_TYPE = 0
CLASSIFICATION_TYPE = U
NORAD_CAT_ID   = 20261
ELEMENT_SET_NO = 999
REV_AT_EPOCH   = 65055
BSTAR          = .1908E-3
MEAN_MOTION_DOT = .645E-5
MEAN_MOTION_DDOT = 0

CCSDS_OMM_VERS = 2.0
CREATION_DATE  = 
ORIGINATOR     = 

OBJECT_NAME    = SL-14 R/B
OBJECT_ID      = 1989-080C
CENTER_NAME    = EARTH
REF_FRAME      = TEME
TIME_SYSTEM    = UTC
MEAN_ELEMENT_THEORY = SGP/SGP4

EPOCH          = 2025-10-31T13:51:58.996224
MEAN_MOTION    = 12.50370335
ECCENTRICITY   = .123151
INCLINATION    = 82.5911
RA_OF_ASC_NODE = 256.0781
ARG_OF_PERICENTER = 119.8880
MEAN_ANOMALY   = 253.0298

EPHEMERIS_TYPE = 0
CLASSIFICATION_TYPE = U
NORAD_CAT_ID   = 20262
ELEMENT_SET_NO = 999
REV_AT_EPOCH   = 64401
BSTAR          = .94146E-4
MEAN_MOTION_DOT = .344E-5
MEAN_MOTION_DDOT = 0

