COSMOS 1892             
1 18421U 87088A   25304.46889463  .00244570  20702-4  76032-3 0  9997
2 18421  82.4689  91.2919 0005094 317.1776  42.9100 15.91513599 84552
SL-14 R/B               
1 18749U 88001B   25304.54132549  .00000690  00000+0  77360-4 0  9994
2 18749  82.5112 316.8471 0016808 308.7671  51.2042 14.85355431 22855
COSMOS 1933             
1 18958U 88020A   25304.59970316  .00005786  00000+0  29460-3 0  9992
2 18958  82.5171  18.4953 0003082 292.9313  67.1594 15.16619505 30654
SL-3 R/B                
1 19046U 88032B   25304.61976505  .00008321  00000+0  40799-3 0  9999
2 19046  97.5041 283.6612 0025938 327.6060  32.3580 15.18085199 32516
SL-16 R/B               
1 19120U 88039B   25304.53903079 -.00000075  00000+0 -12846-4 0  9999
2 19120  71.0156 341.6311 0021901 184.4273 175.6662 14.19586116940059
COSMOS 1953             
1 19210U 88050A   25304.68833064  .00007641  00000+0  29321-3 0  9993
2 19210  82.5062 287.7603 0010803 208.8484 151.2158 15.26261699 18095
SL-8 R/B                
1 19257U 88053B   25304.62504727  .00000364  00000+0  12661-3 0  9996
2 19257  74.0487 350.3412 0020570 206.4518 269.1310 14.38820927958035
COSMOS 1975             
1 19573U 88093A   25304.55170338  .00013341  00000+0  52530-3 0  9998
2 19573  82.5199 247.0270 0009291 267.3772  92.6403 15.25461312999694
SL-14 R/B               
1 19574U 88093B   25304.67601854  .00000590  00000+0  65199-4 0  9992
2 19574  82.5314 163.1402 0022267 103.8588 316.4462 14.85485886981887
SL-16 R/B               
1 19650U 88102B   25304.64195851  .00000167  00000+0  10833-3 0  9994
2 19650  71.0003  63.0171 0015408 215.1281 144.8827 14.16130167908629
INTERCOSMOS 24          
1 20261U 89080A   25304.63407622  .00000645  00000+0  19080-3 0  9995
2 20261  82.6095 188.3312 1187630 232.2199 116.5465 12.59348674650551
SL-14 R/B               
1 20262U 89080C   25304.57776616  .00000344  00000+0  94146-4 0  9994
2 20262  82.5911 256.0781 1231510 119.8880 253.0298 12.50370335644010
